1 39463U 13072B   20304.75794820  .00000741  00000-0  67056-4 0  9999
2 39463 120.4437 125.7140 0214725  58.5407 303.6456 14.94451665 62064